{"type": "FeatureCollection", "features": [{"type": "Feature", "properties": {"norad_id": 28890, "name": "BEIJING 1", "group": "dmc", "lat": -28.764007678578196, "lon": 121.38212489966473, "alt_km": 698.5670654541664, "timestamp": "2025-12-15T07:02:37.280918+00:00", "meta": {"OBJECT_NAME": "BEIJING 1", "OBJECT_ID": "2005-043A", "EPOCH": "2025-12-14T22:58:17.660640", "MEAN_MOTION": 14.6337014, "ECCENTRICITY": 0.00154261, "INCLINATION": 98.2647, "RA_OF_ASC_NODE": 116.4687, "ARG_OF_PERICENTER": 134.5691, "MEAN_ANOMALY": 225.6773, "EPHEMERIS_TYPE": 0, "CLASSIFICATION_TYPE": "U", "NORAD_CAT_ID": 28890, "ELEMENT_SET_NO": 999, "REV_AT_EPOCH": 7370, "BSTAR": 0.00015529116, "MEAN_MOTION_DOT": 7.55e-06, "MEAN_MOTION_DDOT": 0}, "tle": {"line1": "1 28890U 05043A   25348.95714885  .00000755  00000+0  15529-3 0  9999", "line2": "2 28890  98.2647 116.4687 0015426 134.5691 225.6773 14.63370140 73703"}}, "geometry": {"type": "Point", "coordinates": [121.38212489966473, -28.764007678578196]}}, {"type": "Feature", "properties": {"norad_id": 33320, "name": "HUANJING 1A (HJ-1A)", "group": "dmc", "lat": -2.4078528074483, "lon": 157.16143977922755, "alt_km": 634.7206943662832, "timestamp": "2025-12-15T07:02:37.280941+00:00", "meta": {"OBJECT_NAME": "HUANJING 1A (HJ-1A)", "OBJECT_ID": "2008-041A", "EPOCH": "2025-12-14T23:44:58.998336", "MEAN_MOTION": 14.83404436, "ECCENTRICITY": 0.00199985, "INCLINATION": 97.6542, "RA_OF_ASC_NODE": 337.1942, "ARG_OF_PERICENTER": 27.2683, "MEAN_ANOMALY": 332.9577, "EPHEMERIS_TYPE": 0, "CLASSIFICATION_TYPE": "U", "NORAD_CAT_ID": 33320, "ELEMENT_SET_NO": 999, "REV_AT_EPOCH": 93109, "BSTAR": 0.00026301968, "MEAN_MOTION_DOT": 2.114e-05, "MEAN_MOTION_DDOT": 0}, "tle": {"line1": "1 33320U 08041A   25348.98957174  .00002114  00000+0  26302-3 0  9999", "line2": "2 33320  97.6542 337.1942 0019998  27.2683 332.9577 14.83404436931094"}}, "geometry": {"type": "Point", "coordinates": [157.16143977922755, -2.4078528074483]}}, {"type": "Feature", "properties": {"norad_id": 33321, "name": "HUANJING 1B (HJ-1B)", "group": "dmc", "lat": 37.34996132860792, "lon": -24.704078643846362, "alt_km": 594.5256095417708, "timestamp": "2025-12-15T07:02:37.280956+00:00", "meta": {"OBJECT_NAME": "HUANJING 1B (HJ-1B)", "OBJECT_ID": "2008-041B", "EPOCH": "2025-12-14T22:46:38.258688", "MEAN_MOTION": 14.82831512, "ECCENTRICITY": 0.00381689, "INCLINATION": 97.6403, "RA_OF_ASC_NODE": 340.8467, "ARG_OF_PERICENTER": 68.7673, "MEAN_ANOMALY": 291.7612, "EPHEMERIS_TYPE": 0, "CLASSIFICATION_TYPE": "U", "NORAD_CAT_ID": 33321, "ELEMENT_SET_NO": 999, "REV_AT_EPOCH": 93110, "BSTAR": 0.00027524274, "MEAN_MOTION_DOT": 2.204e-05, "MEAN_MOTION_DDOT": 0}, "tle": {"line1": "1 33321U 08041B   25348.94905392  .00002204  00000+0  27524-3 0  9998", "line2": "2 33321  97.6403 340.8467 0038168  68.7673 291.7612 14.82831512931105"}}, "geometry": {"type": "Point", "coordinates": [-24.704078643846362, 37.34996132860792]}}, {"type": "Feature", "properties": {"norad_id": 33446, "name": "YAOGAN-4", "group": "dmc", "lat": -50.95170810135533, "lon": -70.75330449600658, "alt_km": 618.4308417969414, "timestamp": "2025-12-15T07:02:37.280969+00:00", "meta": {"OBJECT_NAME": "YAOGAN-4", "OBJECT_ID": "2008-061A", "EPOCH": "2025-12-14T19:56:16.699776", "MEAN_MOTION": 14.82690709, "ECCENTRICITY": 0.00134312, "INCLINATION": 97.9179, "RA_OF_ASC_NODE": 278.9095, "ARG_OF_PERICENTER": 315.9902, "MEAN_ANOMALY": 44.0242, "EPHEMERIS_TYPE": 0, "CLASSIFICATION_TYPE": "U", "NORAD_CAT_ID": 33446, "ELEMENT_SET_NO": 999, "REV_AT_EPOCH": 91834, "BSTAR": 0.00021548269, "MEAN_MOTION_DOT": 1.687e-05, "MEAN_MOTION_DDOT": 0}, "tle": {"line1": "1 33446U 08061A   25348.83074884  .00001687  00000+0  21548-3 0  9993", "line2": "2 33446  97.9179 278.9095 0013431 315.9902  44.0242 14.82690709918342"}}, "geometry": {"type": "Point", "coordinates": [-70.75330449600658, -50.95170810135533]}}, {"type": "Feature", "properties": {"norad_id": 35681, "name": "DEIMOS-1", "group": "dmc", "lat": 7.046944240113629, "lon": 148.81745444645625, "alt_km": 646.6159483846286, "timestamp": "2025-12-15T07:02:37.280981+00:00", "meta": {"OBJECT_NAME": "DEIMOS-1", "OBJECT_ID": "2009-041A", "EPOCH": "2025-12-14T21:14:33.398592", "MEAN_MOTION": 14.74958653, "ECCENTRICITY": 0.00027201, "INCLINATION": 97.7147, "RA_OF_ASC_NODE": 149.3884, "ARG_OF_PERICENTER": 76.4838, "MEAN_ANOMALY": 283.6675, "EPHEMERIS_TYPE": 0, "CLASSIFICATION_TYPE": "U", "NORAD_CAT_ID": 35681, "ELEMENT_SET_NO": 999, "REV_AT_EPOCH": 87971, "BSTAR": 0.00019439256, "MEAN_MOTION_DOT": 1.259e-05, "MEAN_MOTION_DDOT": 0}, "tle": {"line1": "1 35681U 09041A   25348.88510878  .00001259  00000+0  19439-3 0  9999", "line2": "2 35681  97.7147 149.3884 0002720  76.4838 283.6675 14.74958653879715"}}, "geometry": {"type": "Point", "coordinates": [148.81745444645625, 7.046944240113629]}}, {"type": "Feature", "properties": {"norad_id": 35683, "name": "UK-DMC 2", "group": "dmc", "lat": 28.103636365021266, "lon": 119.89509398923687, "alt_km": 641.5372978960058, "timestamp": "2025-12-15T07:02:37.280991+00:00", "meta": {"OBJECT_NAME": "UK-DMC 2", "OBJECT_ID": "2009-041C", "EPOCH": "2025-12-14T22:46:42.124224", "MEAN_MOTION": 14.75629993, "ECCENTRICITY": 0.00014859, "INCLINATION": 97.8555, "RA_OF_ASC_NODE": 123.7888, "ARG_OF_PERICENTER": 96.5163, "MEAN_ANOMALY": 263.6216, "EPHEMERIS_TYPE": 0, "CLASSIFICATION_TYPE": "U", "NORAD_CAT_ID": 35683, "ELEMENT_SET_NO": 999, "REV_AT_EPOCH": 87939, "BSTAR": 0.00025271201, "MEAN_MOTION_DOT": 1.676e-05, "MEAN_MOTION_DDOT": 0}, "tle": {"line1": "1 35683U 09041C   25348.94909866  .00001676  00000+0  25271-3 0  9991", "line2": "2 35683  97.8555 123.7888 0001485  96.5163 263.6216 14.75629993879398"}}, "geometry": {"type": "Point", "coordinates": [119.89509398923687, 28.103636365021266]}}, {"type": "Feature", "properties": {"norad_id": 40715, "name": "DMC3-FM1", "group": "dmc", "lat": 12.236434407912888, "lon": 38.067463904972264, "alt_km": 616.0404868386049, "timestamp": "2025-12-15T07:02:37.281002+00:00", "meta": {"OBJECT_NAME": "DMC3-FM1", "OBJECT_ID": "2015-032A", "EPOCH": "2025-12-14T22:12:29.572992", "MEAN_MOTION": 14.85446025, "ECCENTRICITY": 0.00045036, "INCLINATION": 97.6693, "RA_OF_ASC_NODE": 216.0382, "ARG_OF_PERICENTER": 312.8036, "MEAN_ANOMALY": 47.2801, "EPHEMERIS_TYPE": 0, "CLASSIFICATION_TYPE": "U", "NORAD_CAT_ID": 40715, "ELEMENT_SET_NO": 999, "REV_AT_EPOCH": 56255, "BSTAR": 0.0001544865, "MEAN_MOTION_DOT": 1.28e-05, "MEAN_MOTION_DDOT": 0}, "tle": {"line1": "1 40715U 15032A   25348.92534228  .00001280  00000+0  15449-3 0  9991", "line2": "2 40715  97.6693 216.0382 0004503 312.8036  47.2801 14.85446025562550"}}, "geometry": {"type": "Point", "coordinates": [38.067463904972264, 12.236434407912888]}}, {"type": "Feature", "properties": {"norad_id": 40716, "name": "DMC3-FM2", "group": "dmc", "lat": 46.797232903532986, "lon": -150.41709061585982, "alt_km": 608.0641311689378, "timestamp": "2025-12-15T07:02:37.281013+00:00", "meta": {"OBJECT_NAME": "DMC3-FM2", "OBJECT_ID": "2015-032B", "EPOCH": "2025-12-14T22:44:52.818720", "MEAN_MOTION": 14.85450279, "ECCENTRICITY": 0.00050892, "INCLINATION": 97.6752, "RA_OF_ASC_NODE": 217.5055, "ARG_OF_PERICENTER": 318.7997, "MEAN_ANOMALY": 41.2834, "EPHEMERIS_TYPE": 0, "CLASSIFICATION_TYPE": "U", "NORAD_CAT_ID": 40716, "ELEMENT_SET_NO": 999, "REV_AT_EPOCH": 56255, "BSTAR": 0.00019708011, "MEAN_MOTION_DOT": 1.648e-05, "MEAN_MOTION_DDOT": 0}, "tle": {"line1": "1 40716U 15032B   25348.94783355  .00001648  00000+0  19708-3 0  9991", "line2": "2 40716  97.6752 217.5055 0005089 318.7997  41.2834 14.85450279562557"}}, "geometry": {"type": "Point", "coordinates": [-150.41709061585982, 46.797232903532986]}}, {"type": "Feature", "properties": {"norad_id": 40717, "name": "DMC3-FM3", "group": "dmc", "lat": -67.11465665388494, "lon": -121.88164993018503, "alt_km": 616.6919865878481, "timestamp": "2025-12-15T07:02:37.281023+00:00", "meta": {"OBJECT_NAME": "DMC3-FM3", "OBJECT_ID": "2015-032C", "EPOCH": "2025-12-14T21:39:02.636640", "MEAN_MOTION": 14.85434908, "ECCENTRICITY": 0.00045095, "INCLINATION": 97.6806, "RA_OF_ASC_NODE": 219.0958, "ARG_OF_PERICENTER": 320.7708, "MEAN_ANOMALY": 39.318, "EPHEMERIS_TYPE": 0, "CLASSIFICATION_TYPE": "U", "NORAD_CAT_ID": 40717, "ELEMENT_SET_NO": 999, "REV_AT_EPOCH": 56255, "BSTAR": 8.7156959e-05, "MEAN_MOTION_DOT": 7e-06, "MEAN_MOTION_DDOT": 0}, "tle": {"line1": "1 40717U 15032C   25348.90211385  .00000700  00000+0  87157-4 0  9999", "line2": "2 40717  97.6806 219.0958 0004509 320.7708  39.3180 14.85434908562559"}}, "geometry": {"type": "Point", "coordinates": [-121.88164993018503, -67.11465665388494]}}]}